[{"OBJECT_NAME":"STARLINK-3130","OBJECT_ID":"2021-104AF","EPOCH":"2025-09-26T21:12:28.107360","MEAN_MOTION":15.08847445,"ECCENTRICITY":7.949e-5,"INCLINATION":53.2212,"RA_OF_ASC_NODE":224.4739,"ARG_OF_PERICENTER":86.3187,"MEAN_ANOMALY":273.7896,"EPHEMERIS_TYPE":0,"CLASSIFICATION_TYPE":"U","NORAD_CAT_ID":49437,"ELEMENT_SET_NO":999,"REV_AT_EPOCH":21418,"BSTAR":0.000157842,"MEAN_MOTION_DOT":2.226e-5,"MEAN_MOTION_DDOT":0},{"OBJECT_NAME":"STARLINK-3044","OBJECT_ID":"2021-104AG","EPOCH":"2025-09-26T14:36:24.516576","MEAN_MOTION":15.08853428,"ECCENTRICITY":0.00014584,"INCLINATION":53.2163,"RA_OF_ASC_NODE":225.6429,"ARG_OF_PERICENTER":98.6297,"MEAN_ANOMALY":261.486,"EPHEMERIS_TYPE":0,"CLASSIFICATION_TYPE":"U","NORAD_CAT_ID":49438,"ELEMENT_SET_NO":999,"REV_AT_EPOCH":21414,"BSTAR":-0.00022561737,"MEAN_MOTION_DOT":-3.878e-5,"MEAN_MOTION_DDOT":0},{"OBJECT_NAME":"STARLINK-3105","OBJECT_ID":"2021-104AJ","EPOCH":"2025-09-26T06:43:25.169952","MEAN_MOTION":15.0883715,"ECCENTRICITY":0.00014062,"INCLINATION":53.2166,"RA_OF_ASC_NODE":227.1821,"ARG_OF_PERICENTER":92.3865,"MEAN_ANOMALY":267.7288,"EPHEMERIS_TYPE":0,"CLASSIFICATION_TYPE":"U","NORAD_CAT_ID":49440,"ELEMENT_SET_NO":999,"REV_AT_EPOCH":21409,"BSTAR":6.9743373e-5,"MEAN_MOTION_DOT":8.22e-6,"MEAN_MOTION_DDOT":0},{"OBJECT_NAME":"STARLINK-3128","OBJECT_ID":"2021-104AK","EPOCH":"2025-09-26T14:13:51.442464","MEAN_MOTION":15.0883995,"ECCENTRICITY":0.00015075,"INCLINATION":53.2174,"RA_OF_ASC_NODE":225.7795,"ARG_OF_PERICENTER":84.8165,"MEAN_ANOMALY":275.2999,"EPHEMERIS_TYPE":0,"CLASSIFICATION_TYPE":"U","NORAD_CAT_ID":49441,"ELEMENT_SET_NO":999,"REV_AT_EPOCH":21414,"BSTAR":4.1643395e-5,"MEAN_MOTION_DOT":3.75e-6,"MEAN_MOTION_DDOT":0},{"OBJECT_NAME":"STARLINK-3098","OBJECT_ID":"2021-104AL","EPOCH":"2025-09-26T14:35:04.739136","MEAN_MOTION":15.08824099,"ECCENTRICITY":0.0001266,"INCLINATION":53.2154,"RA_OF_ASC_NODE":225.7136,"ARG_OF_PERICENTER":93.5568,"MEAN_ANOMALY":266.5569,"EPHEMERIS_TYPE":0,"CLASSIFICATION_TYPE":"U","NORAD_CAT_ID":49442,"ELEMENT_SET_NO":999,"REV_AT_EPOCH":21414,"BSTAR":4.9101788e-5,"MEAN_MOTION_DOT":4.93e-6,"MEAN_MOTION_DDOT":0},{"OBJECT_NAME":"STARLINK-3136","OBJECT_ID":"2021-104AM","EPOCH":"2025-09-26T14:08:33.315072","MEAN_MOTION":15.08834427,"ECCENTRICITY":0.00012657,"INCLINATION":53.2171,"RA_OF_ASC_NODE":225.7959,"ARG_OF_PERICENTER":81.3571,"MEAN_ANOMALY":278.7565,"EPHEMERIS_TYPE":0,"CLASSIFICATION_TYPE":"U","NORAD_CAT_ID":49443,"ELEMENT_SET_NO":999,"REV_AT_EPOCH":21414,"BSTAR":5.4084983e-5,"MEAN_MOTION_DOT":5.73e-6,"MEAN_MOTION_DDOT":0},{"OBJECT_NAME":"STARLINK-3126","OBJECT_ID":"2021-104AN","EPOCH":"2025-09-26T14:31:08.142240","MEAN_MOTION":15.08837062,"ECCENTRICITY":0.0001542,"INCLINATION":53.2171,"RA_OF_ASC_NODE":225.7367,"ARG_OF_PERICENTER":85.8009,"MEAN_ANOMALY":274.316,"EPHEMERIS_TYPE":0,"CLASSIFICATION_TYPE":"U","NORAD_CAT_ID":49444,"ELEMENT_SET_NO":999,"REV_AT_EPOCH":21414,"BSTAR":-1.1241123e-5,"MEAN_MOTION_DOT":-4.67e-6,"MEAN_MOTION_DDOT":0},{"OBJECT_NAME":"STARLINK-3122","OBJECT_ID":"2021-104AP","EPOCH":"2025-09-26T07:47:07.825632","MEAN_MOTION":15.08836914,"ECCENTRICITY":0.00013382,"INCLINATION":53.2159,"RA_OF_ASC_NODE":237.3811,"ARG_OF_PERICENTER":91.4465,"MEAN_ANOMALY":268.6681,"EPHEMERIS_TYPE":0,"CLASSIFICATION_TYPE":"U","NORAD_CAT_ID":49445,"ELEMENT_SET_NO":999,"REV_AT_EPOCH":21395,"BSTAR":6.3132291e-5,"MEAN_MOTION_DOT":7.17e-6,"MEAN_MOTION_DDOT":0},{"OBJECT_NAME":"STARLINK-3099","OBJECT_ID":"2021-104AQ","EPOCH":"2025-09-26T14:24:26.517888","MEAN_MOTION":15.08844019,"ECCENTRICITY":0.00013667,"INCLINATION":53.216,"RA_OF_ASC_NODE":225.7481,"ARG_OF_PERICENTER":87.1516,"MEAN_ANOMALY":272.9633,"EPHEMERIS_TYPE":0,"CLASSIFICATION_TYPE":"U","NORAD_CAT_ID":49446,"ELEMENT_SET_NO":999,"REV_AT_EPOCH":21414,"BSTAR":0.00010214808,"MEAN_MOTION_DOT":1.338e-5,"MEAN_MOTION_DDOT":0},{"OBJECT_NAME":"STARLINK-3115","OBJECT_ID":"2021-104AR","EPOCH":"2025-09-26T14:39:01.910592","MEAN_MOTION":15.08841359,"ECCENTRICITY":0.00014081,"INCLINATION":53.2162,"RA_OF_ASC_NODE":235.6987,"ARG_OF_PERICENTER":84.4664,"MEAN_ANOMALY":275.6489,"EPHEMERIS_TYPE":0,"CLASSIFICATION_TYPE":"U","NORAD_CAT_ID":49447,"ELEMENT_SET_NO":999,"REV_AT_EPOCH":21400,"BSTAR":4.7036103e-5,"MEAN_MOTION_DOT":4.61e-6,"MEAN_MOTION_DDOT":0},{"OBJECT_NAME":"STARLINK-3137","OBJECT_ID":"2021-104AT","EPOCH":"2025-09-26T14:24:29.611008","MEAN_MOTION":15.08842121,"ECCENTRICITY":0.00013358,"INCLINATION":53.2154,"RA_OF_ASC_NODE":235.6926,"ARG_OF_PERICENTER":91.578,"MEAN_ANOMALY":268.5365,"EPHEMERIS_TYPE":0,"CLASSIFICATION_TYPE":"U","NORAD_CAT_ID":49449,"ELEMENT_SET_NO":999,"REV_AT_EPOCH":21400,"BSTAR":1.2186411e-5,"MEAN_MOTION_DOT":-9.4e-7,"MEAN_MOTION_DDOT":0},{"OBJECT_NAME":"STARLINK-3127","OBJECT_ID":"2021-104AU","EPOCH":"2025-09-26T14:49:35.717664","MEAN_MOTION":15.08853984,"ECCENTRICITY":0.00014516,"INCLINATION":53.2167,"RA_OF_ASC_NODE":235.7043,"ARG_OF_PERICENTER":78.5284,"MEAN_ANOMALY":281.5871,"EPHEMERIS_TYPE":0,"CLASSIFICATION_TYPE":"U","NORAD_CAT_ID":49450,"ELEMENT_SET_NO":999,"REV_AT_EPOCH":21426,"BSTAR":0.00019591273,"MEAN_MOTION_DOT":2.833e-5,"MEAN_MOTION_DDOT":0},{"OBJECT_NAME":"STARLINK-3125","OBJECT_ID":"2021-104AV","EPOCH":"2025-09-26T14:28:25.494240","MEAN_MOTION":15.08837549,"ECCENTRICITY":0.0001454,"INCLINATION":53.2167,"RA_OF_ASC_NODE":235.7329,"ARG_OF_PERICENTER":93.2921,"MEAN_ANOMALY":266.8237,"EPHEMERIS_TYPE":0,"CLASSIFICATION_TYPE":"U","NORAD_CAT_ID":49451,"ELEMENT_SET_NO":999,"REV_AT_EPOCH":21400,"BSTAR":0.00012471774,"MEAN_MOTION_DOT":1.697e-5,"MEAN_MOTION_DDOT":0},{"OBJECT_NAME":"STARLINK-3150","OBJECT_ID":"2021-104AW","EPOCH":"2025-09-26T04:41:35.641824","MEAN_MOTION":15.08836602,"ECCENTRICITY":0.00014782,"INCLINATION":53.2162,"RA_OF_ASC_NODE":237.6009,"ARG_OF_PERICENTER":93.4147,"MEAN_ANOMALY":266.7015,"EPHEMERIS_TYPE":0,"CLASSIFICATION_TYPE":"U","NORAD_CAT_ID":49452,"ELEMENT_SET_NO":999,"REV_AT_EPOCH":21394,"BSTAR":1.9678718e-5,"MEAN_MOTION_DOT":2.5e-7,"MEAN_MOTION_DDOT":0},{"OBJECT_NAME":"STARLINK-3129","OBJECT_ID":"2021-104AX","EPOCH":"2025-09-26T14:29:49.125120","MEAN_MOTION":15.08834385,"ECCENTRICITY":0.0001307,"INCLINATION":53.2169,"RA_OF_ASC_NODE":235.8169,"ARG_OF_PERICENTER":90.1411,"MEAN_ANOMALY":269.9731,"EPHEMERIS_TYPE":0,"CLASSIFICATION_TYPE":"U","NORAD_CAT_ID":49453,"ELEMENT_SET_NO":999,"REV_AT_EPOCH":21400,"BSTAR":8.480799e-6,"MEAN_MOTION_DOT":-1.53e-6,"MEAN_MOTION_DDOT":0},{"OBJECT_NAME":"STARLINK-3160","OBJECT_ID":"2021-104AY","EPOCH":"2025-09-26T14:23:07.206144","MEAN_MOTION":15.08839449,"ECCENTRICITY":0.00013858,"INCLINATION":53.2158,"RA_OF_ASC_NODE":235.7481,"ARG_OF_PERICENTER":91.7109,"MEAN_ANOMALY":268.4042,"EPHEMERIS_TYPE":0,"CLASSIFICATION_TYPE":"U","NORAD_CAT_ID":49454,"ELEMENT_SET_NO":999,"REV_AT_EPOCH":21400,"BSTAR":3.9404282e-5,"MEAN_MOTION_DOT":3.39e-6,"MEAN_MOTION_DDOT":0},{"OBJECT_NAME":"STARLINK-3145","OBJECT_ID":"2021-104AZ","EPOCH":"2025-09-26T07:40:23.776032","MEAN_MOTION":15.0885085,"ECCENTRICITY":0.00022233,"INCLINATION":53.2156,"RA_OF_ASC_NODE":237.0052,"ARG_OF_PERICENTER":82.2459,"MEAN_ANOMALY":277.8786,"EPHEMERIS_TYPE":0,"CLASSIFICATION_TYPE":"U","NORAD_CAT_ID":49455,"ELEMENT_SET_NO":999,"REV_AT_EPOCH":21396,"BSTAR":0.00069282908,"MEAN_MOTION_DOT":0.00010759,"MEAN_MOTION_DDOT":0},{"OBJECT_NAME":"STARLINK-3124","OBJECT_ID":"2021-104BA","EPOCH":"2025-09-26T04:46:53.409792","MEAN_MOTION":15.08840487,"ECCENTRICITY":0.00014254,"INCLINATION":53.2158,"RA_OF_ASC_NODE":237.5941,"ARG_OF_PERICENTER":92.28,"MEAN_ANOMALY":267.8355,"EPHEMERIS_TYPE":0,"CLASSIFICATION_TYPE":"U","NORAD_CAT_ID":49456,"ELEMENT_SET_NO":999,"REV_AT_EPOCH":21394,"BSTAR":9.3344382e-5,"MEAN_MOTION_DOT":1.198e-5,"MEAN_MOTION_DDOT":0},{"OBJECT_NAME":"STARLINK-3132","OBJECT_ID":"2021-104BB","EPOCH":"2025-09-26T15:33:22.982688","MEAN_MOTION":15.08843443,"ECCENTRICITY":0.00014728,"INCLINATION":53.2156,"RA_OF_ASC_NODE":235.5426,"ARG_OF_PERICENTER":88.9085,"MEAN_ANOMALY":271.2076,"EPHEMERIS_TYPE":0,"CLASSIFICATION_TYPE":"U","NORAD_CAT_ID":49457,"ELEMENT_SET_NO":999,"REV_AT_EPOCH":21401,"BSTAR":7.8954009e-5,"MEAN_MOTION_DOT":9.69e-6,"MEAN_MOTION_DDOT":0},{"OBJECT_NAME":"STARLINK-3156","OBJECT_ID":"2021-104BC","EPOCH":"2025-09-26T07:45:40.828608","MEAN_MOTION":15.08843054,"ECCENTRICITY":0.00015137,"INCLINATION":53.2169,"RA_OF_ASC_NODE":236.989,"ARG_OF_PERICENTER":99.7951,"MEAN_ANOMALY":260.3213,"EPHEMERIS_TYPE":0,"CLASSIFICATION_TYPE":"U","NORAD_CAT_ID":49458,"ELEMENT_SET_NO":999,"REV_AT_EPOCH":21396,"BSTAR":3.7716427e-5,"MEAN_MOTION_DOT":3.12e-6,"MEAN_MOTION_DDOT":0},{"OBJECT_NAME":"STARLINK-3141","OBJECT_ID":"2021-104BD","EPOCH":"2025-09-26T15:26:42.754560","MEAN_MOTION":15.08840389,"ECCENTRICITY":0.00018562,"INCLINATION":53.2165,"RA_OF_ASC_NODE":235.5515,"ARG_OF_PERICENTER":87.2448,"MEAN_ANOMALY":272.8757,"EPHEMERIS_TYPE":0,"CLASSIFICATION_TYPE":"U","NORAD_CAT_ID":49459,"ELEMENT_SET_NO":999,"REV_AT_EPOCH":21401,"BSTAR":7.3351391e-5,"MEAN_MOTION_DOT":8.79e-6,"MEAN_MOTION_DDOT":0},{"OBJECT_NAME":"STARLINK-3140","OBJECT_ID":"2021-104BE","EPOCH":"2025-09-26T15:21:25.069536","MEAN_MOTION":15.08833329,"ECCENTRICITY":0.00013601,"INCLINATION":53.2161,"RA_OF_ASC_NODE":235.5663,"ARG_OF_PERICENTER":91.7574,"MEAN_ANOMALY":268.3574,"EPHEMERIS_TYPE":0,"CLASSIFICATION_TYPE":"U","NORAD_CAT_ID":49460,"ELEMENT_SET_NO":999,"REV_AT_EPOCH":21400,"BSTAR":-6.783822e-6,"MEAN_MOTION_DOT":-3.96e-6,"MEAN_MOTION_DDOT":0},{"OBJECT_NAME":"STARLINK-3219","OBJECT_ID":"2021-115A","EPOCH":"2025-09-26T10:39:15.837984","MEAN_MOTION":15.08841471,"ECCENTRICITY":0.00014406,"INCLINATION":53.2185,"RA_OF_ASC_NODE":166.6687,"ARG_OF_PERICENTER":82.501,"MEAN_ANOMALY":277.6146,"EPHEMERIS_TYPE":0,"CLASSIFICATION_TYPE":"U","NORAD_CAT_ID":49724,"ELEMENT_SET_NO":999,"REV_AT_EPOCH":21073,"BSTAR":0.00010951464,"MEAN_MOTION_DOT":1.455e-5,"MEAN_MOTION_DDOT":0}]
